<?xml version="1.0" encoding="UTF-8"?>
<ndm xmlns:xsi="http://www.w3.org/2001/XMLSchema-instance" xsi:noNamespaceSchemaLocation="https://sanaregistry.org/r/ndmxml_unqualified/ndmxml-2.0.0-master-2.0.xsd">
<omm id="CCSDS_OMM_VERS" version="2.0">
<header><CREATION_DATE/><ORIGINATOR/></header><body><segment><metadata><OBJECT_NAME>KUIPER-00069</OBJECT_NAME><OBJECT_ID>2025-151A</OBJECT_ID><CENTER_NAME>EARTH</CENTER_NAME><REF_FRAME>TEME</REF_FRAME><TIME_SYSTEM>UTC</TIME_SYSTEM><MEAN_ELEMENT_THEORY>SGP4</MEAN_ELEMENT_THEORY></metadata><data><meanElements><EPOCH>2025-11-13T00:00:02.000160</EPOCH><MEAN_MOTION>14.87978143</MEAN_MOTION><ECCENTRICITY>.00067965</ECCENTRICITY><INCLINATION>51.9207</INCLINATION><RA_OF_ASC_NODE>76.6750</RA_OF_ASC_NODE><ARG_OF_PERICENTER>248.1649</ARG_OF_PERICENTER><MEAN_ANOMALY>337.0869</MEAN_ANOMALY></meanElements><tleParameters><EPHEMERIS_TYPE>0</EPHEMERIS_TYPE><CLASSIFICATION_TYPE>U</CLASSIFICATION_TYPE><NORAD_CAT_ID>64816</NORAD_CAT_ID><ELEMENT_SET_NO>999</ELEMENT_SET_NO><REV_AT_EPOCH>577</REV_AT_EPOCH><BSTAR>-.11295713E+0</BSTAR><MEAN_MOTION_DOT>-.973453E-2</MEAN_MOTION_DOT><MEAN_MOTION_DDOT>0</MEAN_MOTION_DDOT></tleParameters></data></segment></body></omm>
<omm id="CCSDS_OMM_VERS" version="2.0">
<header><CREATION_DATE/><ORIGINATOR/></header><body><segment><metadata><OBJECT_NAME>KUIPER-00070</OBJECT_NAME><OBJECT_ID>2025-151B</OBJECT_ID><CENTER_NAME>EARTH</CENTER_NAME><REF_FRAME>TEME</REF_FRAME><TIME_SYSTEM>UTC</TIME_SYSTEM><MEAN_ELEMENT_THEORY>SGP4</MEAN_ELEMENT_THEORY></metadata><data><meanElements><EPOCH>2025-11-12T10:06:57.993120</EPOCH><MEAN_MOTION>14.79983099</MEAN_MOTION><ECCENTRICITY>.00100595</ECCENTRICITY><INCLINATION>51.8988</INCLINATION><RA_OF_ASC_NODE>104.1238</RA_OF_ASC_NODE><ARG_OF_PERICENTER>218.7772</ARG_OF_PERICENTER><MEAN_ANOMALY>141.2469</MEAN_ANOMALY></meanElements><tleParameters><EPHEMERIS_TYPE>0</EPHEMERIS_TYPE><CLASSIFICATION_TYPE>U</CLASSIFICATION_TYPE><NORAD_CAT_ID>64817</NORAD_CAT_ID><ELEMENT_SET_NO>999</ELEMENT_SET_NO><REV_AT_EPOCH>1905</REV_AT_EPOCH><BSTAR>.15660867E-2</BSTAR><MEAN_MOTION_DOT>.1176E-3</MEAN_MOTION_DOT><MEAN_MOTION_DDOT>0</MEAN_MOTION_DDOT></tleParameters></data></segment></body></omm>
<omm id="CCSDS_OMM_VERS" version="2.0">
<header><CREATION_DATE/><ORIGINATOR/></header><body><segment><metadata><OBJECT_NAME>KUIPER-00071</OBJECT_NAME><OBJECT_ID>2025-151C</OBJECT_ID><CENTER_NAME>EARTH</CENTER_NAME><REF_FRAME>TEME</REF_FRAME><TIME_SYSTEM>UTC</TIME_SYSTEM><MEAN_ELEMENT_THEORY>SGP4</MEAN_ELEMENT_THEORY></metadata><data><meanElements><EPOCH>2025-11-12T10:10:56.419968</EPOCH><MEAN_MOTION>14.79963975</MEAN_MOTION><ECCENTRICITY>.00072783</ECCENTRICITY><INCLINATION>51.8995</INCLINATION><RA_OF_ASC_NODE>101.6202</RA_OF_ASC_NODE><ARG_OF_PERICENTER>188.2524</ARG_OF_PERICENTER><MEAN_ANOMALY>171.8320</MEAN_ANOMALY></meanElements><tleParameters><EPHEMERIS_TYPE>0</EPHEMERIS_TYPE><CLASSIFICATION_TYPE>U</CLASSIFICATION_TYPE><NORAD_CAT_ID>64818</NORAD_CAT_ID><ELEMENT_SET_NO>999</ELEMENT_SET_NO><REV_AT_EPOCH>1790</REV_AT_EPOCH><BSTAR>.17979536E-2</BSTAR><MEAN_MOTION_DOT>.13527E-3</MEAN_MOTION_DOT><MEAN_MOTION_DDOT>0</MEAN_MOTION_DDOT></tleParameters></data></segment></body></omm>
<omm id="CCSDS_OMM_VERS" version="2.0">
<header><CREATION_DATE/><ORIGINATOR/></header><body><segment><metadata><OBJECT_NAME>KUIPER-00072</OBJECT_NAME><OBJECT_ID>2025-151D</OBJECT_ID><CENTER_NAME>EARTH</CENTER_NAME><REF_FRAME>TEME</REF_FRAME><TIME_SYSTEM>UTC</TIME_SYSTEM><MEAN_ELEMENT_THEORY>SGP4</MEAN_ELEMENT_THEORY></metadata><data><meanElements><EPOCH>2025-11-12T08:04:04.519488</EPOCH><MEAN_MOTION>14.86359548</MEAN_MOTION><ECCENTRICITY>.00023518</ECCENTRICITY><INCLINATION>51.8984</INCLINATION><RA_OF_ASC_NODE>81.9281</RA_OF_ASC_NODE><ARG_OF_PERICENTER>192.4016</ARG_OF_PERICENTER><MEAN_ANOMALY>167.6891</MEAN_ANOMALY></meanElements><tleParameters><EPHEMERIS_TYPE>0</EPHEMERIS_TYPE><CLASSIFICATION_TYPE>U</CLASSIFICATION_TYPE><NORAD_CAT_ID>64819</NORAD_CAT_ID><ELEMENT_SET_NO>999</ELEMENT_SET_NO><REV_AT_EPOCH>1817</REV_AT_EPOCH><BSTAR>.10058021E-2</BSTAR><MEAN_MOTION_DOT>.8732E-4</MEAN_MOTION_DOT><MEAN_MOTION_DDOT>0</MEAN_MOTION_DDOT></tleParameters></data></segment></body></omm>
<omm id="CCSDS_OMM_VERS" version="2.0">
<header><CREATION_DATE/><ORIGINATOR/></header><body><segment><metadata><OBJECT_NAME>KUIPER-00073</OBJECT_NAME><OBJECT_ID>2025-151E</OBJECT_ID><CENTER_NAME>EARTH</CENTER_NAME><REF_FRAME>TEME</REF_FRAME><TIME_SYSTEM>UTC</TIME_SYSTEM><MEAN_ELEMENT_THEORY>SGP4</MEAN_ELEMENT_THEORY></metadata><data><meanElements><EPOCH>2025-11-12T09:20:40.007616</EPOCH><MEAN_MOTION>14.80089284</MEAN_MOTION><ECCENTRICITY>.00132126</ECCENTRICITY><INCLINATION>51.8981</INCLINATION><RA_OF_ASC_NODE>101.7601</RA_OF_ASC_NODE><ARG_OF_PERICENTER>220.7968</ARG_OF_PERICENTER><MEAN_ANOMALY>139.2006</MEAN_ANOMALY></meanElements><tleParameters><EPHEMERIS_TYPE>0</EPHEMERIS_TYPE><CLASSIFICATION_TYPE>U</CLASSIFICATION_TYPE><NORAD_CAT_ID>64820</NORAD_CAT_ID><ELEMENT_SET_NO>999</ELEMENT_SET_NO><REV_AT_EPOCH>1908</REV_AT_EPOCH><BSTAR>.12677312E-2</BSTAR><MEAN_MOTION_DOT>.9503E-4</MEAN_MOTION_DOT><MEAN_MOTION_DDOT>0</MEAN_MOTION_DDOT></tleParameters></data></segment></body></omm>
<omm id="CCSDS_OMM_VERS" version="2.0">
<header><CREATION_DATE/><ORIGINATOR/></header><body><segment><metadata><OBJECT_NAME>KUIPER-00074</OBJECT_NAME><OBJECT_ID>2025-151F</OBJECT_ID><CENTER_NAME>EARTH</CENTER_NAME><REF_FRAME>TEME</REF_FRAME><TIME_SYSTEM>UTC</TIME_SYSTEM><MEAN_ELEMENT_THEORY>SGP4</MEAN_ELEMENT_THEORY></metadata><data><meanElements><EPOCH>2025-11-12T17:47:48.710400</EPOCH><MEAN_MOTION>14.79930290</MEAN_MOTION><ECCENTRICITY>.00122277</ECCENTRICITY><INCLINATION>51.9006</INCLINATION><RA_OF_ASC_NODE>87.7268</RA_OF_ASC_NODE><ARG_OF_PERICENTER>238.5972</ARG_OF_PERICENTER><MEAN_ANOMALY>121.3795</MEAN_ANOMALY></meanElements><tleParameters><EPHEMERIS_TYPE>0</EPHEMERIS_TYPE><CLASSIFICATION_TYPE>U</CLASSIFICATION_TYPE><NORAD_CAT_ID>64821</NORAD_CAT_ID><ELEMENT_SET_NO>999</ELEMENT_SET_NO><REV_AT_EPOCH>1812</REV_AT_EPOCH><BSTAR>.14983914E-2</BSTAR><MEAN_MOTION_DOT>.11231E-3</MEAN_MOTION_DOT><MEAN_MOTION_DDOT>0</MEAN_MOTION_DDOT></tleParameters></data></segment></body></omm>
<omm id="CCSDS_OMM_VERS" version="2.0">
<header><CREATION_DATE/><ORIGINATOR/></header><body><segment><metadata><OBJECT_NAME>KUIPER-00075</OBJECT_NAME><OBJECT_ID>2025-151G</OBJECT_ID><CENTER_NAME>EARTH</CENTER_NAME><REF_FRAME>TEME</REF_FRAME><TIME_SYSTEM>UTC</TIME_SYSTEM><MEAN_ELEMENT_THEORY>SGP4</MEAN_ELEMENT_THEORY></metadata><data><meanElements><EPOCH>2025-11-12T17:27:26.663616</EPOCH><MEAN_MOTION>15.40093486</MEAN_MOTION><ECCENTRICITY>.00044967</ECCENTRICITY><INCLINATION>51.8772</INCLINATION><RA_OF_ASC_NODE>69.8216</RA_OF_ASC_NODE><ARG_OF_PERICENTER>210.2079</ARG_OF_PERICENTER><MEAN_ANOMALY>149.8650</MEAN_ANOMALY></meanElements><tleParameters><EPHEMERIS_TYPE>0</EPHEMERIS_TYPE><CLASSIFICATION_TYPE>U</CLASSIFICATION_TYPE><NORAD_CAT_ID>64822</NORAD_CAT_ID><ELEMENT_SET_NO>999</ELEMENT_SET_NO><REV_AT_EPOCH>1837</REV_AT_EPOCH><BSTAR>.22283735E-2</BSTAR><MEAN_MOTION_DOT>.91333E-3</MEAN_MOTION_DOT><MEAN_MOTION_DDOT>0</MEAN_MOTION_DDOT></tleParameters></data></segment></body></omm>
<omm id="CCSDS_OMM_VERS" version="2.0">
<header><CREATION_DATE/><ORIGINATOR/></header><body><segment><metadata><OBJECT_NAME>KUIPER-00076</OBJECT_NAME><OBJECT_ID>2025-151H</OBJECT_ID><CENTER_NAME>EARTH</CENTER_NAME><REF_FRAME>TEME</REF_FRAME><TIME_SYSTEM>UTC</TIME_SYSTEM><MEAN_ELEMENT_THEORY>SGP4</MEAN_ELEMENT_THEORY></metadata><data><meanElements><EPOCH>2025-11-12T19:21:05.341248</EPOCH><MEAN_MOTION>14.80003262</MEAN_MOTION><ECCENTRICITY>.00037729</ECCENTRICITY><INCLINATION>51.8993</INCLINATION><RA_OF_ASC_NODE>89.9358</RA_OF_ASC_NODE><ARG_OF_PERICENTER>232.3710</ARG_OF_PERICENTER><MEAN_ANOMALY>127.6910</MEAN_ANOMALY></meanElements><tleParameters><EPHEMERIS_TYPE>0</EPHEMERIS_TYPE><CLASSIFICATION_TYPE>U</CLASSIFICATION_TYPE><NORAD_CAT_ID>64823</NORAD_CAT_ID><ELEMENT_SET_NO>999</ELEMENT_SET_NO><REV_AT_EPOCH>1810</REV_AT_EPOCH><BSTAR>.10920476E-2</BSTAR><MEAN_MOTION_DOT>.8128E-4</MEAN_MOTION_DOT><MEAN_MOTION_DDOT>0</MEAN_MOTION_DDOT></tleParameters></data></segment></body></omm>
<omm id="CCSDS_OMM_VERS" version="2.0">
<header><CREATION_DATE/><ORIGINATOR/></header><body><segment><metadata><OBJECT_NAME>KUIPER-00077</OBJECT_NAME><OBJECT_ID>2025-151J</OBJECT_ID><CENTER_NAME>EARTH</CENTER_NAME><REF_FRAME>TEME</REF_FRAME><TIME_SYSTEM>UTC</TIME_SYSTEM><MEAN_ELEMENT_THEORY>SGP4</MEAN_ELEMENT_THEORY></metadata><data><meanElements><EPOCH>2025-11-12T15:59:04.642944</EPOCH><MEAN_MOTION>14.79951734</MEAN_MOTION><ECCENTRICITY>.00063774</ECCENTRICITY><INCLINATION>51.9009</INCLINATION><RA_OF_ASC_NODE>95.5603</RA_OF_ASC_NODE><ARG_OF_PERICENTER>182.6971</ARG_OF_PERICENTER><MEAN_ANOMALY>177.3958</MEAN_ANOMALY></meanElements><tleParameters><EPHEMERIS_TYPE>0</EPHEMERIS_TYPE><CLASSIFICATION_TYPE>U</CLASSIFICATION_TYPE><NORAD_CAT_ID>64824</NORAD_CAT_ID><ELEMENT_SET_NO>999</ELEMENT_SET_NO><REV_AT_EPOCH>1801</REV_AT_EPOCH><BSTAR>.14440587E-2</BSTAR><MEAN_MOTION_DOT>.10812E-3</MEAN_MOTION_DOT><MEAN_MOTION_DDOT>0</MEAN_MOTION_DDOT></tleParameters></data></segment></body></omm>

</ndm>
